NORAD_CAT_ID,OBJECT_NAME,OBJECT_TYPE,EPOCH,MEAN_MOTION,ECCENTRICITY,INCLINATION,RA_OF_ASC_NODE,ARG_OF_PERICENTER,MEAN_ANOMALY,BSTAR,MEAN_MOTION_DOT,MEAN_MOTION_DDOT,TLE_LINE0,TLE_LINE1,TLE_LINE2,SEMIMAJOR_AXIS,PERIOD,APOGEE,PERIGEE,DECAYED
54180.0,STARLINK-5228,PAYLOAD,2023-03-26 21:53:02,15.08821432,0.0001844,53.2175,166.6021,104.1291,255.9907,0.00064546,9.994e-05,0.0,0 STARLINK-5228,1 54180U 22141Z   23085.91183047  .00009994  00000-0  64546-3 0  9998,2 54180  53.2175 166.6021 0001844 104.1291 255.9907 15.08821432 23006,6917.937,95.439,541.078,538.526,0.0
54180.0,STARLINK-5228,PAYLOAD,2023-03-27 10:36:06,15.08851169,0.0001567,53.2162,164.2219,100.0362,260.0807,0.0006881,0.00010683,0.0,0 STARLINK-5228,1 54180U 22141Z   23086.44174499  .00010683  00000-0  68810-3 0  9993,2 54180  53.2162 164.2219 0001567 100.0362 260.0807 15.08851169 23311,6917.846,95.437,540.795,538.627,0.0
54180.0,STARLINK-5228,PAYLOAD,2023-03-27 12:11:29,15.08855674,0.0001612,53.2165,163.9246,101.5968,258.5205,0.00077611,0.00012091,0.0,0 STARLINK-5228,1 54180U 22141Z   23086.50798359  .00012091  00000-0  77611-3 0  9991,2 54180  53.2165 163.9246 0001612 101.5968 258.5205 15.08855674 23093,6917.832,95.437,540.813,538.582,0.0
54180.0,STARLINK-5228,PAYLOAD,2023-03-27 21:43:48,15.08855498,0.0001413,53.2166,162.1424,98.395,261.7203,0.00049597,7.618e-05,0.0,0 STARLINK-5228,1 54180U 22141Z   23086.90542048  .00007618  00000-0  49597-3 0  9998,2 54180  53.2166 162.1424 0001413  98.3950 261.7203 15.08855498 23151,6917.833,95.437,540.676,538.721,0.0
54180.0,STARLINK-5228,PAYLOAD,2023-03-28 10:26:53,15.08844078,0.0001856,53.219,159.7686,102.8302,257.2897,7.8086e-05,9.55e-06,0.0,0 STARLINK-5228,1 54180U 22141Z   23087.43534290  .00000955  00000-0  78086-4 0  9990,2 54180  53.2190 159.7686 0001856 102.8302 257.2897 15.08844078 23468,6917.868,95.437,541.017,538.449,0.0
54180.0,STARLINK-5228,PAYLOAD,2023-03-29 11:53:03,15.08851673,0.0001655,53.217,155.0045,87.5321,272.586,0.00030858,4.628e-05,0.0,0 STARLINK-5228,1 54180U 22141Z   23088.49517916  .00004628  00000-0  30858-3 0  9998,2 54180  53.2170 155.0045 0001655  87.5321 272.5860 15.08851673 23392,6917.845,95.437,540.855,538.565,0.0
54180.0,STARLINK-5228,PAYLOAD,2023-03-29 16:39:12,15.08863867,0.0001621,53.2161,154.1101,93.7785,266.3392,0.00060101,9.296e-05,0.0,0 STARLINK-5228,1 54180U 22141Z   23088.69389397  .00009296  00000-0  60101-3 0  9990,2 54180  53.2161 154.1101 0001621  93.7785 266.3392 15.08863867 23659,6917.807,95.436,540.794,538.551,0.0
54180.0,STARLINK-5228,PAYLOAD,2023-03-29 21:25:22,15.08830579,6.94e-05,53.2168,153.2218,105.365,254.7419,-0.00028499,-4.819e-05,0.0,0 STARLINK-5228,1 54180U 22141Z   23088.89261972 -.00004819  00000-0 -28499-3 0  9992,2 54180  53.2168 153.2218 0000694 105.3650 254.7419 15.08830579 23458,6917.909,95.438,540.254,539.294,0.0
54180.0,STARLINK-5228,PAYLOAD,2023-03-30 03:46:55,15.08828967,7.43e-05,53.2169,152.0318,93.7262,266.3815,-0.00028787,-4.865e-05,0.0,0 STARLINK-5228,1 54180U 22141Z   23089.15758150 -.00004865  00000-0 -28787-3 0  9992,2 54180  53.2169 152.0318 0000743  93.7262 266.3815 15.08828967 23728,6917.914,95.438,540.293,539.265,0.0
54180.0,STARLINK-5228,PAYLOAD,2023-03-30 10:08:27,15.08842825,0.0001257,53.216,150.8415,87.4437,272.6699,0.00022363,3.273e-05,0.0,0 STARLINK-5228,1 54180U 22141Z   23089.42254087  .00003273  00000-0  22363-3 0  9996,2 54180  53.2160 150.8415 0001257  87.4437 272.6699 15.08842825 23761,6917.872,95.437,540.606,538.867,0.0
54180.0,STARLINK-5228,PAYLOAD,2023-04-01 03:28:29,15.08839093,0.0001531,53.2172,143.1105,86.224,273.8927,0.00017936,2.568e-05,0.0,0 STARLINK-5228,1 54180U 22141Z   23091.14478622  .00002568  00000-0  17936-3 0  9997,2 54180  53.2172 143.1105 0001531  86.2240 273.8927 15.08839093 24029,6917.883,95.438,540.807,538.689,0.0
54180.0,STARLINK-5228,PAYLOAD,2023-04-01 09:50:02,15.08831423,0.0001389,53.2164,141.9215,80.7257,279.3893,2.4887e-06,-2.48e-06,0.0,0 STARLINK-5228,1 54180U 22141Z   23091.40975055 -.00000248  00000-0  24887-5 0  9997,2 54180  53.2164 141.9215 0001389  80.7257 279.3893 15.08831423 24062,6917.907,95.438,540.733,538.811,0.0
54180.0,STARLINK-5228,PAYLOAD,2023-04-02 12:51:35,15.08850283,0.0001275,53.217,136.863,103.2273,256.8862,0.00021254,3.097e-05,0.0,0 STARLINK-5228,1 54180U 22141Z   23092.53582266  .00003097  00000-0  21254-3 0  9997,2 54180  53.2170 136.8630 0001275 103.2273 256.8862 15.08850283 24236,6917.849,95.437,540.596,538.832,0.0
54180.0,STARLINK-5228,PAYLOAD,2023-04-03 03:10:04,15.08832588,0.0001004,53.2169,134.1888,79.6856,280.4249,5.7132e-05,6.21e-06,0.0,0 STARLINK-5228,1 54180U 22141Z   23093.13199308  .00000621  00000-0  57132-4 0  9990,2 54180  53.2169 134.1888 0001004  79.6856 280.4249 15.08832588 24323,6917.903,95.438,540.463,539.073,0.0
54180.0,STARLINK-5228,PAYLOAD,2023-04-03 11:06:59,15.08839498,0.0001216,53.2166,132.697,113.6963,246.4156,0.00011037,1.469e-05,0.0,0 STARLINK-5228,1 54180U 22141Z   23093.46318934  .00001469  00000-0  11037-3 0  9998,2 54180  53.2166 132.6970 0001216 113.6963 246.4156 15.08839498 24144,6917.882,95.438,540.588,538.906,0.0
54180.0,STARLINK-5228,PAYLOAD,2023-04-03 19:03:55,15.08843168,0.0001288,53.2173,131.2153,95.9078,264.2061,0.00015527,2.184e-05,0.0,0 STARLINK-5228,1 54180U 22141Z   23093.79438960  .00002184  00000-0  15527-3 0  9999,2 54180  53.2173 131.2153 0001288  95.9078 264.2061 15.08843168 24421,6917.871,95.437,540.627,538.845,0.0
54180.0,STARLINK-5228,PAYLOAD,2023-04-04 09:22:23,15.08857266,0.0001167,53.2159,128.5381,97.4768,262.6357,0.00060101,9.295e-05,0.0,0 STARLINK-5228,1 54180U 22141Z   23094.39054471  .00009295  00000-0  60101-3 0  9995,2 54180  53.2159 128.5381 0001167  97.4768 262.6357 15.08857266 24510,6917.828,95.436,540.5,538.885,0.0
54180.0,STARLINK-5228,PAYLOAD,2023-04-05 04:27:00,15.08843249,0.0001107,53.2158,124.9698,83.6534,276.4584,9.8708e-05,1.284e-05,0.0,0 STARLINK-5228,1 54180U 22141Z   23095.18542692  .00001284  00000-0  98708-4 0  9995,2 54180  53.2158 124.9698 0001107  83.6534 276.4584 15.08843249 24636,6917.87,95.437,540.501,538.97,0.0
54180.0,STARLINK-5228,PAYLOAD,2023-04-05 10:48:33,15.08837436,0.0001191,53.2158,123.7806,86.8062,273.3066,-3.1485e-05,-7.89e-06,0.0,0 STARLINK-5228,1 54180U 22141Z   23095.45038914 -.00000789  00000-0 -31485-4 0  9992,2 54180  53.2158 123.7806 0001191  86.8062 273.3066 15.08837436 24449,6917.888,95.438,540.577,538.929,0.0
54180.0,STARLINK-5228,PAYLOAD,2023-04-05 18:45:29,15.08839552,0.0001203,53.2158,122.2937,86.3648,273.7482,3.9907e-05,3.47e-06,0.0,0 STARLINK-5228,1 54180U 22141Z   23095.78158959  .00000347  00000-0  39907-4 0  9995,2 54180  53.2158 122.2937 0001203  86.3648 273.7482 15.08839552 24499,6917.882,95.438,540.579,538.915,0.0
54180.0,STARLINK-5228,PAYLOAD,2023-04-06 01:07:01,15.08840738,0.0001204,53.2155,121.1039,86.7888,273.3242,5.5451e-05,5.95e-06,0.0,0 STARLINK-5228,1 54180U 22141Z   23096.04654912  .00000595  00000-0  55451-4 0  9992,2 54180  53.2155 121.1039 0001204  86.7888 273.3242 15.08840738 24766,6917.878,95.438,540.576,538.91,0.0
54180.0,STARLINK-5228,PAYLOAD,2023-04-06 09:03:57,15.08847062,0.0001161,53.2159,119.617,84.3942,275.7182,4.9684e-05,5.03e-06,0.0,0 STARLINK-5228,1 54180U 22141Z   23096.37774620  .00000503  00000-0  49684-4 0  9997,2 54180  53.2159 119.6170 0001161  84.3942 275.7182 15.08847062 24581,6917.859,95.437,540.527,538.921,0.0
54180.0,STARLINK-5228,PAYLOAD,2023-04-06 18:36:16,15.08843095,0.0001239,53.2161,117.833,84.4583,275.6551,0.00013589,1.876e-05,0.0,0 STARLINK-5228,1 54180U 22141Z   23096.77518847  .00001876  00000-0  13589-3 0  9996,2 54180  53.2161 117.8330 0001239  84.4583 275.6551 15.08843095 24648,6917.871,95.437,540.593,538.879,0.0
54180.0,STARLINK-5228,PAYLOAD,2023-04-07 02:33:11,15.08843125,0.0001229,53.2161,116.3461,84.6569,275.4563,0.00022035,3.221e-05,0.0,0 STARLINK-5228,1 54180U 22141Z   23097.10638862  .00003221  00000-0  22035-3 0  9996,2 54180  53.2161 116.3461 0001229  84.6569 275.4563 15.08843125 24928,6917.871,95.437,540.586,538.886,0.0
54180.0,STARLINK-5228,PAYLOAD,2023-04-07 10:30:07,15.08843922,0.0001263,53.2158,114.8593,85.257,274.8567,0.00021509,3.137e-05,0.0,0 STARLINK-5228,1 54180U 22141Z   23097.43758948  .00003137  00000-0  21509-3 0  9991,2 54180  53.2158 114.8593 0001263  85.2570 274.8567 15.08843922 24742,6917.868,95.437,540.607,538.86,0.0
54180.0,STARLINK-5228,PAYLOAD,2023-04-07 18:27:03,15.08839769,0.0001249,53.215,113.3723,84.4747,275.6388,9.409e-05,1.21e-05,0.0,0 STARLINK-5228,1 54180U 22141Z   23097.76879108  .00001210  00000-0  94090-4 0  9995,2 54180  53.2150 113.3723 0001249  84.4747 275.6388 15.08839769 25020,6917.881,95.438,540.61,538.882,0.0
54180.0,STARLINK-5228,PAYLOAD,2023-04-08 10:20:54,15.08840746,0.0001351,53.2157,110.3977,86.0585,274.0562,5.5844e-05,6.01e-06,0.0,0 STARLINK-5228,1 54180U 22141Z   23098.43119177  .00000601  00000-0  55844-4 0  9990,2 54180  53.2157 110.3977 0001351  86.0585 274.0562 15.08840746 24895,6917.878,95.438,540.678,538.809,0.0
54180.0,STARLINK-5228,PAYLOAD,2023-04-09 00:39:23,15.08841089,0.0001304,53.2165,107.7218,87.1341,272.98,6.9638e-05,8.21e-06,0.0,0 STARLINK-5228,1 54180U 22141Z   23099.02735149  .00000821  00000-0  69638-4 0  9999,2 54180  53.2165 107.7218 0001304  87.1341 272.9800 15.08841089 25212,6917.877,95.437,540.644,538.84,0.0
54180.0,STARLINK-5228,PAYLOAD,2023-04-09 07:00:55,15.08842113,0.0001311,53.2167,106.5325,86.2103,273.9039,8.5769e-05,1.077e-05,0.0,0 STARLINK-5228,1 54180U 22141Z   23099.29231014  .00001077  00000-0  85769-4 0  9997,2 54180  53.2167 106.5325 0001311  86.2103 273.9039 15.08842113 25027,6917.874,95.437,540.646,538.832,0.0
54180.0,STARLINK-5228,PAYLOAD,2023-04-10 06:51:42,15.08841201,0.0001227,53.2163,102.0713,90.5912,269.5221,9.0332e-05,1.15e-05,0.0,0 STARLINK-5228,1 54180U 22141Z   23100.28591097  .00001150  00000-0  90332-4 0  9993,2 54180  53.2163 102.0713 0001227  90.5912 269.5221 15.08841201 25400,6917.877,95.437,540.591,538.893,0.0
